FLOCK 3P'-2             
1 43120U 18004K   22040.42604484  .00005084  00000+0  20589-3 0  9996
2 43120  97.3898 115.7375 0011159  97.1616 263.0891 15.25065194226661
FLOCK 3P'-4             
1 43122U 18004M   22040.48080094  .00004889  00000+0  19791-3 0  9994
2 43122  97.3905 115.9406 0010954  98.1841 262.0640 15.25102680226676
FLOCK 3R-9              
1 43723U 18096E   22040.48549039  .00031854  00000+0  91112-3 0  9990
2 43723  97.3636 124.3345 0014047 136.0739 236.2682 15.35807395178564
FLOCK 3R-12             
1 43724U 18096F   22040.47685333  .00030200  00000+0  85987-3 0  9995
2 43724  97.3691 124.3872 0015107 140.2093 220.0262 15.35945574178566
FLOCK 3R-11             
1 43725U 18096G   22039.87511180  .00009127  00000+0  26136-3 0  9991
2 43725  97.3691 123.7863 0014800 139.2936 220.9417 15.36046843178476
FLOCK 3R-8              
1 43727U 18096J   22040.50499448  .00009805  00000+0  28147-3 0  9994
2 43727  97.3707 124.6445 0014925 139.7644 220.4707 15.35947713178574
FLOCK 3R-4              
1 43733U 18096Q   22040.48194624  .00039637  00000+0  11160-2 0  9998
2 43733  97.3717 124.7225 0018753 145.5243 278.3406 15.36174884178572
FLOCK 3R-3              
1 43734U 18096R   22039.80430627  .00007670  00000+0  21879-3 0  9990
2 43734  97.3692 124.1370 0017436 145.8343 339.1939 15.36182654178471
FLOCK 3R-6              
1 43741U 18096Y   22040.46423789  .00015033  00000+0  43307-3 0  9995
2 43741  97.3687 124.5023 0014894 141.3787 279.2985 15.35727848178575
FLOCK 3R-7              
1 43742U 18096Z   22040.19734637  .00025683  00000+0  73267-3 0  9993
2 43742  97.3671 124.2339 0014479 139.3096 278.8667 15.35928137178526
FLOCK 3R-1              
1 43747U 18096AE  22039.77603696  .00029815  00000+0  84850-3 0  9991
2 43747  97.3718 124.1312 0017668 145.3797 214.8601 15.35920456178480
FLOCK 3S-1              
1 43769U 18099M   22040.12549795  .00001615  00000+0  15006-3 0  9993
2 43769  97.6363 109.2161 0013425 349.4242  10.6695 14.95679728173824
SKYSAT-C12              
1 43797U 18099AR  22039.68299047  .00007663  00000+0  18731-3 0  9992
2 43797  97.1453 109.7309 0000582  68.6367 291.4942 15.41086126177663
SKYSAT-C13              
1 43802U 18099AW  22039.92282778  .00006072  00000+0  17703-3 0  9990
2 43802  97.1738 108.3550 0005590  45.8518 314.3185 15.35710738177220
FLOCK 3K-4              
1 43893U 18111T   22039.93569714  .00009087  00000+0  30035-3 0  9996
2 43893  97.2109 293.5770 0019448 166.6626 193.5134 15.31400098173861
FLOCK 3K-2              
1 43895U 18111V   22040.51388523  .00007191  00000+0  23813-3 0  9991
2 43895  97.2104 294.0980 0019907 163.8928 196.2951 15.31407195173953
FLOCK 3K-5              
1 43899U 18111Z   22040.24263657  .00021553  00000+0  70163-3 0  9993
2 43899  97.2110 293.9252 0018763 159.2573 200.9435 15.31700952173911
FLOCK 3K-7              
1 43902U 18111AC  22040.16751829  .00018181  00000+0  59128-3 0  9993
2 43902  97.2111 293.8441 0018735 160.0640 200.1338 15.31767592173906
FLOCK 3K-10             
1 43905U 18111AF  22039.94854780  .00016199  00000+0  53068-3 0  9994
2 43905  97.2112 293.7106 0018494 158.7348 201.4666 15.31560891173875
FLOCK 3K-9              
1 43906U 18111AG  22040.48791310  .00024635  00000+0  80192-3 0  9997
2 43906  97.2104 294.1270 0018607 157.5141 202.6920 15.31678459173953
FLOCK 4A-2              
1 44080U 19018C   22040.44334339  .00014020  00000+0  52954-3 0  9990
2 44080  97.3319 102.3561 0011015 195.3330 164.7577 15.27056448159116
FLOCK 4A-17             
1 44088U 19018L   22040.14280266  .00006755  00000+0  25550-3 0  9992
2 44088  97.3326 102.4277 0011298 203.5946 156.4777 15.27219890159072
FLOCK 4A-19             
1 44090U 19018N   22040.43188167  .00007740  00000+0  29039-3 0  9995
2 44090  97.3323 102.7792 0011064 203.9366 156.1360 15.27442775159129
FLOCK 4A-6              
1 44094U 19018S   22040.42210289  .00017743  00000+0  65868-3 0  9993
2 44094  97.3332 102.8754 0008603 207.7324 152.3458 15.27597408159134
FLOCK 4A-5              
1 44095U 19018T   22040.41554184  .00011467  00000+0  44486-3 0  9998
2 44095  97.3331 102.7274 0009550 208.2052 151.8671 15.26228386159110
FLOCK 4A-11             
1 44096U 19018U   22040.46133522  .00006915  00000+0  26092-3 0  9998
2 44096  97.3336 103.0070 0009071 211.7041 148.3653 15.27313694159130
FLOCK 4A-9              
1 44098U 19018W   22040.45113442  .00012467  00000+0  46477-3 0  9996
2 44098  97.3336 103.0161 0009656 213.6098 146.4530 15.27530195159135
FLOCK 4A-16             
1 44099U 19018X   22040.44185850  .00006628  00000+0  24954-3 0  9996
2 44099  97.3329 102.9594 0009675 213.9753 146.0868 15.27396030159136
FLOCK 4P-10             
1 44808U 19081E   22040.16744082  .00014015  00000+0  58699-3 0  9993
2 44808  97.4198 106.3658 0011422 319.5005  40.5381 15.23593602122345
FLOCK 4P-11             
1 44809U 19081F   22039.81594629  .00007019  00000+0  29438-3 0  9999
2 44809  97.4195 106.0495 0011207 319.5510  40.4893 15.23752670122294
FLOCK 4P-4              
1 44811U 19081H   22040.17844237  .00012838  00000+0  52934-3 0  9998
2 44811  97.4247 106.7792 0010131 306.3812  53.6490 15.24156708122353
FLOCK 4P-3              
1 44812U 19081J   22040.17292626  .00012958  00000+0  53553-3 0  9999
2 44812  97.4245 106.7831 0010017 307.9809  52.0523 15.24077837122357
FLOCK 4P-2              
1 44813U 19081K   22039.74216910  .00008895  00000+0  37280-3 0  9997
2 44813  97.4208 106.1035 0009744 312.7552  47.2864 15.23709079122286
FLOCK 4P-1              
1 44814U 19081L   22040.13983557  .00009475  00000+0  40267-3 0  9995
2 44814  97.4212 106.4962 0009733 311.6451  48.3952 15.23218802122344
FLOCK 4P-7              
1 44816U 19081N   22040.11342549  .00010882  00000+0  45821-3 0  9990
2 44816  97.4204 106.5110 0009429 312.2557  47.7880 15.23496796122342
FLOCK 4P-5              
1 44818U 19081Q   22040.41902257  .00007980  00000+0  33574-3 0  9990
2 44818  97.4210 106.8799 0008789 311.4846  48.5636 15.23622323122397
SKYSAT-C14              
1 45788U 20038BL  22039.90611734  .00020848  00000+0  26689-3 0  9997
2 45788  52.9952 233.3111 0002067  47.7704 312.3482 15.59187826 94596
SKYSAT-C16              
1 45789U 20038BM  22040.04400467  .00021687  00000+0  27404-3 0  9992
2 45789  52.9967 232.0676 0002825  52.6883 307.4385 15.59505161 94616
SKYSAT-C15              
1 45790U 20038BN  22039.80732186  .00019749  00000+0  26241-3 0  9996
2 45790  52.9958 233.3644 0006519 326.7598  33.3002 15.58217592 94572
SKYSAT-C17              
1 46179U 20057BQ  22039.94033844  .00025245  00000+0  32843-3 0  9992
2 46179  52.9972 325.6072 0005344  35.0116 325.1246 15.58623695 85196
SKYSAT-C18              
1 46180U 20057BR  22040.05497448  .00025964  00000+0  33297-3 0  9994
2 46180  52.9929 325.3452 0003702 168.9877 191.1215 15.58996137 83914
SKYSAT-C19              
1 46235U 20057BS  22040.15127476  .00026213  00000+0  33316-3 0  9997
2 46235  52.9936 323.1724 0006950  59.4607 300.7090 15.59211169 83953
FLOCK 4V-9              
1 46282U 20061L   22039.88686229  .00004258  00000+0  25134-3 0  9992
2 46282  97.4629 112.9159 0003381   7.7648 352.3634 15.12047270 79052
FLOCK 4V-12             
1 46283U 20061M   22040.47843522  .00004865  00000+0  28665-3 0  9997
2 46283  97.4651 113.5786 0003315   5.8230 354.3038 15.12044042 79148
FLOCK 4V-11             
1 46285U 20061P   22040.13934098  .00003125  00000+0  18510-3 0  9997
2 46285  97.4634 113.2126 0003454   8.0899 352.0387 15.12122500 79098
FLOCK 4V-14             
1 46286U 20061Q   22039.79800451  .00006913  00000+0  40505-3 0  9990
2 46286  97.4636 112.9015 0003315   9.5877 350.5416 15.12102859 79048
FLOCK 4V-8              
1 46288U 20061S   22040.46444675  .00008006  00000+0  46832-3 0  9994
2 46288  97.4635 113.5323 0003023  26.8902 333.2485 15.12110920 79058
FLOCK 4V-6              
1 46289U 20061T   22039.78681301  .00002862  00000+0  16991-3 0  9994
2 46289  97.4638 112.9214 0002766  31.1472 328.9922 15.12111331 79041
FLOCK 4V-5              
1 46290U 20061U   22039.91067989  .00001805  00000+0  10876-3 0  9993
2 46290  97.4630 113.0385 0003014  31.3880 328.7530 15.12016348 79065
FLOCK 4V-7              
1 46291U 20061V   22039.69790439  .00005929  00000+0  34847-3 0  9997
2 46291  97.4632 112.8832 0002572  26.9289 333.2074 15.12052928 78925
FLOCK 4V-10             
1 46296U 20061AA  22040.17609382  .00003300  00000+0  19487-3 0  9997
2 46296  97.4638 113.4982 0000896  65.4889 294.6435 15.12191944 79070
FLOCK 4V-13             
1 46297U 20061AB  22039.77114364  .00006187  00000+0  36277-3 0  9995
2 46297  97.4638 113.1163 0000805  66.2675 293.8640 15.12122191 78998
FLOCK 4V-1              
1 46313U 20061AT  22040.48641064  .00004129  00000+0  24174-3 0  9993
2 46313  97.4645 114.1469 0001589 262.8101  97.2949 15.12370537 79137
FLOCK 4V-4              
1 46314U 20061AU  22039.91862683  .00002849  00000+0  16867-3 0  9999
2 46314  97.4647 113.5340 0001856 260.5104  99.5917 15.12216245 79096
FLOCK 4V-2              
1 46321U 20061BB  22040.15562096  .00006811  00000+0  38853-3 0  9992
2 46321  97.4641 113.9892 0001953 263.6761  96.4248 15.13078731 79028
FLOCK 4V-3              
1 46322U 20061BC  22039.72758323  .00003106  00000+0  18424-3 0  9990
2 46322  97.4653 113.3374 0001550 260.8731  99.2324 15.12080042 79023
FLOCK 4V-16             
1 46527U 20061BD  22039.74711142  .00008592  00000+0  42768-3 0  9999
2 46527  97.4148 113.3931 0007573 201.1201 158.9721 15.17813815 75341
FLOCK 4V-15             
1 46528U 20061BE  22039.82984225  .00004059  00000+0  20397-3 0  9991
2 46528  97.4123 113.9595 0001765 219.3527 140.7579 15.17822610 75743
FLOCK 4V-17             
1 46529U 20061BF  22039.72787816  .00005178  00000+0  25878-3 0  9990
2 46529  97.4092 113.6033 0002238 196.5053 163.6109 15.17882949 74922
FLOCK 4V-21             
1 46596U 20061BK  22039.91043840  .00009239  00000+0  45937-3 0  9997
2 46596  97.4066 113.5366 0003935 176.3635 183.7628 15.17846141 73104
